STARLINK-37727          
1 69481U 26131D   26180.53003764  .00403894  00000+0  19962-2 0  9992
2 69481  97.2835 201.5286 0000837  47.0803 313.0536 15.81001948  4112
STARLINK-37814          
1 69482U 26131E   26180.50003471 -.00036732  00000+0 -19143-3 0  9992
2 69482  97.2832 201.4993 0001273  96.4350  97.3427 15.80861828  3990
STARLINK-37869          
1 69483U 26131F   26180.52853168  .00231919  00000+0  11755-2 0  9993
2 69483  97.2830 201.5313 0001593 350.1800   9.9436 15.80893344  4113
STARLINK-37873          
1 69484U 26131G   26180.52792223  .00330853  00000+0  16854-2 0  9990
2 69484  97.2838 201.5339 0002365  90.0546 270.0993 15.80525373  4118
STARLINK-37892          
1 69485U 26131H   26180.52664867  .00370368  00000+0  17742-2 0  9995
2 69485  97.2833 201.5339 0003188 277.3736  82.7170 15.81769854  4119
STARLINK-37893          
1 69486U 26131J   26179.57675678  .00174911  00000+0  89249-3 0  9999
2 69486  97.2830 200.5305 0001342 112.3155 247.8256 15.80894916  3960
STARLINK-37842          
1 69487U 26131K   26180.52552949  .00246057  00000+0  12460-2 0  9993
2 69487  97.2837 201.5353 0001430  81.5421 278.6009 15.80876994  4115
STARLINK-37449          
1 69488U 26131L   26180.52477917  .00306388  00000+0  15353-2 0  9993
2 69488  97.2834 201.5366 0001458  92.4254 267.7181 15.80950941  4117
STARLINK-37831          
1 69489U 26131M   26180.52402649  .00313970  00000+0  15713-2 0  9999
2 69489  97.2828 201.5369 0001219  39.2332 320.9024 15.80959636  4113
STARLINK-37879          
1 69490U 26131N   26180.52327367  .00303366  00000+0  15200-2 0  9993
2 69490  97.2841 201.5395 0001301  78.4925 281.6489 15.80960344  4110
STARLINK-37856          
1 69491U 26131P   26180.53091247  .00243971  00000+0  12269-2 0  9997
2 69491  97.2829 201.5284 0002506 222.2155 137.8920 15.81033356  4113
STARLINK-37568          
1 69492U 26131Q   26180.52177084  .00358212  00000+0  17815-2 0  9998
2 69492  97.2828 201.5408 0001312  32.0742 328.0606 15.80982454  4110
STARLINK-37855          
1 69493U 26131R   26179.91668981  .00072334  00000+0  37591-3 0  9993
2 69493  97.2830 200.8862 0001329  84.8403  39.1775 15.80777670  3957
STARLINK-37854          
1 69494U 26131S   26180.33937731  .00239924  00000+0  12293-2 0  9995
2 69494  97.2825 201.3284 0002347 133.8320 226.3142 15.80633497  4081
STARLINK-37789          
1 69495U 26131T   26180.51951676  .00281448  00000+0  14180-2 0  9995
2 69495  97.2825 201.5427 0001683  54.5555 305.5870 15.80896275  2850
STARLINK-37839          
1 69496U 26131U   26180.40004934  .00357782  00000+0  17832-2 0  9992
2 69496  97.2827 201.3995 0000972  50.6167 309.5187 15.80936745  2837
STARLINK-37798          
1 69497U 26131V   26180.51876458  .00042284  00000+0  22047-3 0  9996
2 69497  97.2827 201.5447 0001409 130.2073 229.9319 15.80810549  2856
STARLINK-37853          
1 69498U 26131W   26180.51500870  .00323954  00000+0  16194-2 0  9990
2 69498  97.2841 201.5491 0000924  58.9152 301.2207 15.80958751  2855
STARLINK-37849          
1 69499U 26131X   26180.51575936  .00321458  00000+0  16108-2 0  9998
2 69499  97.2838 201.5489 0001794  49.9598 310.1828 15.80912640  2854
STARLINK-37835          
1 69500U 26131Y   26180.51725929  .00186689  00000+0  95378-3 0  9992
2 69500  97.2829 201.5468 0001469  91.5482 268.5955 15.80836546  2855
STARLINK-37843          
1 69501U 26131Z   26180.51650488  .00180946  00000+0  92472-3 0  9992
2 69501  97.2825 201.5477 0000733  96.9276 263.2076 15.80845086  2850
2026-132A               
1 69502U 26132A   26179.76969296  .00001199  00000+0  10355-3 0  9991
2 69502  97.6886 243.2921 0013309 226.4996 133.5121 14.99065715  2516
2026-132B               
1 69503U 26132B   26179.96894283  .00000978  00000+0  85206-4 0  9999
2 69503  97.6917 243.4977 0013222 227.8820 132.1280 14.99150815  2540
BRO-22                  
1 69504U 26132C   26180.16207527  .00000931  00000+0  79996-4 0  9991
2 69504  97.6849 243.6892 0014964 239.5978 120.3767 14.99772743  2573
2026-132D               
1 69505U 26132D   26180.25777274  .00003719  00000+0  25851-3 0  9990
2 69505  97.6856 243.8572 0020045 250.8339 109.0718 15.05986778  2598
VERTECS                 
1 69506U 26132E   26180.41587623  .00002311  00000+0  18585-3 0  9999
2 69506  97.6873 243.9793 0013701 260.7040  99.2635 15.00928992  2603
2026-132F               
1 69507U 26132F   26180.13558032  .00001506  00000+0  11490-3 0  9994
2 69507  97.6856 243.7161 0015834 255.7453 104.2013 15.03451809  2566
STARLINK-37536          
1 69508U 26133A   26179.73795148  .00009153  00000+0  50109-4 0  9998
2 69508  53.1587 264.2217 0001421  55.3831 304.7325 15.80765474  2593
STARLINK-37341          
1 69509U 26133B   26180.50003471 -.02428899  00000+0 -17823-1 0  9996
2 69509  53.1592 260.3914 0001131  58.2443 327.7632 15.76029759  3951
STARLINK-36536          
1 69510U 26133C   26180.49140529  .00145478  00000+0  72668-3 0  9997
2 69510  53.1590 260.3867 0001037  80.4820 279.6320 15.80919926  2721
