OBJECT_NAME,OBJECT_ID,EPOCH,MEAN_MOTION,ECCENTRICITY,INCLINATION,RA_OF_ASC_NODE,ARG_OF_PERICENTER,MEAN_ANOMALY,EPHEMERIS_TYPE,CLASSIFICATION_TYPE,NORAD_CAT_ID,ELEMENT_SET_NO,REV_AT_EPOCH,BSTAR,MEAN_MOTION_DOT,MEAN_MOTION_DDOT
STARLINK-37727,2026-131D,2026-06-29T12:43:15.252096,15.81001948,.0000837,97.2835,201.5286,47.0803,313.0536,0,U,69481,999,411,.19962E-2,.403894E-2,0
STARLINK-37814,2026-131E,2026-06-29T12:00:02.998944,15.80861828,.0001273,97.2832,201.4993,96.4350,97.3427,0,U,69482,999,399,-.19143E-3,-.36732E-3,0
STARLINK-37869,2026-131F,2026-06-29T12:41:05.137152,15.80893344,.0001593,97.2830,201.5313,350.1800,9.9436,0,U,69483,999,411,.11755E-2,.231919E-2,0
STARLINK-37873,2026-131G,2026-06-29T12:40:12.480672,15.80525373,.0002365,97.2838,201.5339,90.0546,270.0993,0,U,69484,999,411,.16854E-2,.330853E-2,0
STARLINK-37892,2026-131H,2026-06-29T12:38:22.445088,15.81769854,.0003188,97.2833,201.5339,277.3736,82.7170,0,U,69485,999,411,.17742E-2,.370368E-2,0
STARLINK-37893,2026-131J,2026-06-28T13:50:31.785792,15.80894916,.00013429,97.2830,200.5305,112.3155,247.8256,0,U,69486,999,396,.89248916E-3,.174911E-2,0
STARLINK-37842,2026-131K,2026-06-29T12:36:45.747936,15.80876994,.000143,97.2837,201.5353,81.5421,278.6009,0,U,69487,999,411,.1246E-2,.246057E-2,0
STARLINK-37449,2026-131L,2026-06-29T12:35:40.920288,15.80950941,.0001458,97.2834,201.5366,92.4254,267.7181,0,U,69488,999,411,.15353E-2,.306388E-2,0
STARLINK-37831,2026-131M,2026-06-29T12:34:35.888736,15.80959636,.0001219,97.2828,201.5369,39.2332,320.9024,0,U,69489,999,411,.15713E-2,.31397E-2,0
STARLINK-37879,2026-131N,2026-06-29T12:33:30.845088,15.80960344,.0001301,97.2841,201.5395,78.4925,281.6489,0,U,69490,999,411,.152E-2,.303366E-2,0
STARLINK-37856,2026-131P,2026-06-29T12:44:30.837408,15.81033356,.0002506,97.2829,201.5284,222.2155,137.8920,0,U,69491,999,411,.12269E-2,.243971E-2,0
STARLINK-37568,2026-131Q,2026-06-29T12:31:21.000576,15.80982454,.0001312,97.2828,201.5408,32.0742,328.0606,0,U,69492,999,411,.17815E-2,.358212E-2,0
STARLINK-37855,2026-131R,2026-06-28T22:00:01.999584,15.80777670,.00013299,97.2830,200.8862,84.8403,39.1775,0,U,69493,999,395,.37590553E-3,.72334E-3,0
STARLINK-37854,2026-131S,2026-06-29T08:08:42.199584,15.80633497,.0002347,97.2825,201.3284,133.8320,226.3142,0,U,69494,999,408,.12293E-2,.239924E-2,0
STARLINK-37789,2026-131T,2026-06-29T12:28:06.248064,15.80896275,.0001683,97.2825,201.5427,54.5555,305.5870,0,U,69495,999,285,.1418E-2,.281448E-2,0
STARLINK-37839,2026-131U,2026-06-29T09:36:04.262976,15.80936745,.0000972,97.2827,201.3995,50.6167,309.5187,0,U,69496,999,283,.17832E-2,.357782E-2,0
STARLINK-37798,2026-131V,2026-06-29T12:27:01.259712,15.80810549,.0001409,97.2827,201.5447,130.2073,229.9319,0,U,69497,999,285,.22047E-3,.42284E-3,0
STARLINK-37853,2026-131W,2026-06-29T12:21:36.751680,15.80958751,.0000924,97.2841,201.5491,58.9152,301.2207,0,U,69498,999,285,.16194E-2,.323954E-2,0
STARLINK-37849,2026-131X,2026-06-29T12:22:41.608704,15.80912640,.0001794,97.2838,201.5489,49.9598,310.1828,0,U,69499,999,285,.16108E-2,.321458E-2,0
STARLINK-37835,2026-131Y,2026-06-29T12:24:51.202656,15.80836546,.0001469,97.2829,201.5468,91.5482,268.5955,0,U,69500,999,285,.95378E-3,.186689E-2,0
STARLINK-37843,2026-131Z,2026-06-29T12:23:46.021632,15.80845086,.0000733,97.2825,201.5477,96.9276,263.2076,0,U,69501,999,285,.92472E-3,.180946E-2,0
2026-132A,2026-132A,2026-06-28T18:28:21.471744,14.99065715,.0013309,97.6886,243.2921,226.4996,133.5121,0,U,69502,999,251,.10354949E-3,.1199E-4,0
2026-132B,2026-132B,2026-06-28T23:15:16.660512,14.99150815,.00132223,97.6917,243.4977,227.8820,132.1280,0,U,69503,999,254,.85206099E-4,.978E-5,0
BRO-22,2026-132C,2026-06-29T03:53:23.303328,14.99772743,.0014964,97.6849,243.6892,239.5978,120.3767,0,U,69504,999,257,.79996E-4,.931E-5,0
2026-132D,2026-132D,2026-06-29T06:11:11.564736,15.05986778,.0020045,97.6856,243.8572,250.8339,109.0718,0,U,69505,999,259,.25851E-3,.3719E-4,0
VERTECS,2026-132E,2026-06-29T09:58:51.706272,15.00928992,.0013701,97.6873,243.9793,260.7040,99.2635,0,U,69506,999,260,.18585E-3,.2311E-4,0
2026-132F,2026-132F,2026-06-29T03:15:14.139648,15.03451809,.0015834,97.6856,243.7161,255.7453,104.2013,0,U,69507,999,256,.1149E-3,.1506E-4,0
STARLINK-37536,2026-133A,2026-06-28T17:42:39.007872,15.80765474,.0001421,53.1587,264.2217,55.3831,304.7325,0,U,69508,999,259,.50109289E-4,.9153E-4,0
STARLINK-37341,2026-133B,2026-06-29T12:00:02.998944,15.76029759,.0001131,53.1592,260.3914,58.2443,327.7632,0,U,69509,999,395,-.17823E-1,-.2428899E-1,0
STARLINK-36536,2026-133C,2026-06-29T11:47:37.417056,15.80919926,.0001037,53.1590,260.3867,80.4820,279.6320,0,U,69510,999,272,.72668E-3,.145478E-2,0
